[{"CCSDS_OMM_VERS":"2.0","COMMENT":"GENERATED VIA SPACE-TRACK.ORG API","CREATION_DATE":"2021-10-28T19:46:15","ORIGINATOR":"18 SPCS","OBJECT_NAME":"TBA - TO BE ASSIGNED","OBJECT_ID":"","CENTER_NAME":"EARTH","REF_FRAME":"TEME","TIME_SYSTEM":"UTC","MEAN_ELEMENT_THEORY":"SGP4","EPOCH":"2021-10-28T06:56:18.165696","MEAN_MOTION":"14.28882158","ECCENTRICITY":"0.00416400","INCLINATION":"99.2348","RA_OF_ASC_NODE":"309.6943","ARG_OF_PERICENTER":"319.2793","MEAN_ANOMALY":"40.5276","EPHEMERIS_TYPE":"0","CLASSIFICATION_TYPE":"U","NORAD_CAT_ID":"87878","ELEMENT_SET_NO":"999","REV_AT_EPOCH":"39550","BSTAR":"0.00032720000000","MEAN_MOTION_DOT":"0.00000784","MEAN_MOTION_DDOT":"0.0000000000000","SEMIMAJOR_AXIS":"7173.607","PERIOD":"100.778","APOAPSIS":"825.343","PERIAPSIS":"765.601","OBJECT_TYPE":"TBA","RCS_SIZE":null,"COUNTRY_CODE":null,"LAUNCH_DATE":null,"SITE":null,"DECAY_DATE":null,"FILE":"3189110","GP_ID":"188317023","TLE_LINE0":"0 TBA - TO BE ASSIGNED","TLE_LINE1":"1 87878U          21301.28909914 +.00000784 +00000+0 +32720-3 0  9992","TLE_LINE2":"2 87878  99.2348 309.6943 0041640 319.2793  40.5276 14.28882158395501"},{"CCSDS_OMM_VERS":"2.0","COMMENT":"GENERATED VIA SPACE-TRACK.ORG API","CREATION_DATE":"2021-11-03T18:02:46","ORIGINATOR":"18 SPCS","OBJECT_NAME":"TBA - TO BE ASSIGNED","OBJECT_ID":"1999-025","CENTER_NAME":"EARTH","REF_FRAME":"TEME","TIME_SYSTEM":"UTC","MEAN_ELEMENT_THEORY":"SGP4","EPOCH":"2021-11-02T22:08:57.372000","MEAN_MOTION":"14.12126542","ECCENTRICITY":"0.02971260","INCLINATION":"99.2376","RA_OF_ASC_NODE":"191.9102","ARG_OF_PERICENTER":"272.1231","MEAN_ANOMALY":"84.5946","EPHEMERIS_TYPE":"0","CLASSIFICATION_TYPE":"U","NORAD_CAT_ID":"87883","ELEMENT_SET_NO":"999","REV_AT_EPOCH":"36030","BSTAR":"0.00018457000000","MEAN_MOTION_DOT":"0.00000457","MEAN_MOTION_DDOT":"0.0000000000000","SEMIMAJOR_AXIS":"7230.241","PERIOD":"101.974","APOAPSIS":"1066.935","PERIAPSIS":"637.277","OBJECT_TYPE":"TBA","RCS_SIZE":null,"COUNTRY_CODE":null,"LAUNCH_DATE":null,"SITE":null,"DECAY_DATE":null,"FILE":"3199757","GP_ID":"188806263","TLE_LINE0":"0 TBA - TO BE ASSIGNED","TLE_LINE1":"1 87883U 99025    21306.92288625 +.00000457 +00000+0 +18457-3 0  9996","TLE_LINE2":"2 87883  99.2376 191.9102 0297126 272.1231  84.5946 14.12126542360306"},{"CCSDS_OMM_VERS":"2.0","COMMENT":"GENERATED VIA SPACE-TRACK.ORG API","CREATION_DATE":"2021-11-04T17:50:53","ORIGINATOR":"18 SPCS","OBJECT_NAME":"TBA - TO BE ASSIGNED","OBJECT_ID":"1999-025","CENTER_NAME":"EARTH","REF_FRAME":"TEME","TIME_SYSTEM":"UTC","MEAN_ELEMENT_THEORY":"SGP4","EPOCH":"2021-11-04T09:08:50.591904","MEAN_MOTION":"14.04425805","ECCENTRICITY":"0.01563700","INCLINATION":"98.5749","RA_OF_ASC_NODE":"97.1692","ARG_OF_PERICENTER":"329.8718","MEAN_ANOMALY":"29.3525","EPHEMERIS_TYPE":"0","CLASSIFICATION_TYPE":"U","NORAD_CAT_ID":"87884","ELEMENT_SET_NO":"999","REV_AT_EPOCH":"40781","BSTAR":"0.00004625100000","MEAN_MOTION_DOT":"0.00000040","MEAN_MOTION_DDOT":"0.0000000000000","SEMIMAJOR_AXIS":"7256.647","PERIOD":"102.533","APOAPSIS":"991.984","PERIAPSIS":"765.039","OBJECT_TYPE":"TBA","RCS_SIZE":null,"COUNTRY_CODE":null,"LAUNCH_DATE":null,"SITE":null,"DECAY_DATE":null,"FILE":"3200777","GP_ID":"188873964","TLE_LINE0":"0 TBA - TO BE ASSIGNED","TLE_LINE1":"1 87884U 99025    21308.38114111 +.00000040 +00000+0 +46251-4 0  9999","TLE_LINE2":"2 87884  98.5749  97.1692 0156370 329.8718  29.3525 14.04425805407812"},{"CCSDS_OMM_VERS":"2.0","COMMENT":"GENERATED VIA SPACE-TRACK.ORG API","CREATION_DATE":"2021-11-04T17:50:53","ORIGINATOR":"18 SPCS","OBJECT_NAME":"TBA - TO BE ASSIGNED","OBJECT_ID":"1999-025","CENTER_NAME":"EARTH","REF_FRAME":"TEME","TIME_SYSTEM":"UTC","MEAN_ELEMENT_THEORY":"SGP4","EPOCH":"2021-11-03T20:05:26.288448","MEAN_MOTION":"14.28825169","ECCENTRICITY":"0.01363490","INCLINATION":"98.9097","RA_OF_ASC_NODE":"165.5779","ARG_OF_PERICENTER":"322.9597","MEAN_ANOMALY":"36.2231","EPHEMERIS_TYPE":"0","CLASSIFICATION_TYPE":"U","NORAD_CAT_ID":"87898","ELEMENT_SET_NO":"999","REV_AT_EPOCH":"41315","BSTAR":"0.00154470000000","MEAN_MOTION_DOT":"0.00004257","MEAN_MOTION_DDOT":"0.0000000000000","SEMIMAJOR_AXIS":"7173.798","PERIOD":"100.782","APOAPSIS":"893.477","PERIAPSIS":"697.848","OBJECT_TYPE":"TBA","RCS_SIZE":null,"COUNTRY_CODE":null,"LAUNCH_DATE":null,"SITE":null,"DECAY_DATE":null,"FILE":"3200777","GP_ID":"188874163","TLE_LINE0":"0 TBA - TO BE ASSIGNED","TLE_LINE1":"1 87898U 99025    21307.83710982 +.00004257 +00000+0 +15447-2 0  9996","TLE_LINE2":"2 87898  98.9097 165.5779 0136349 322.9597  36.2231 14.28825169413154"},{"CCSDS_OMM_VERS":"2.0","COMMENT":"GENERATED VIA SPACE-TRACK.ORG API","CREATION_DATE":"2021-11-04T17:50:53","ORIGINATOR":"18 SPCS","OBJECT_NAME":"TBA - TO BE ASSIGNED","OBJECT_ID":"","CENTER_NAME":"EARTH","REF_FRAME":"TEME","TIME_SYSTEM":"UTC","MEAN_ELEMENT_THEORY":"SGP4","EPOCH":"2021-11-04T08:13:49.723104","MEAN_MOTION":"13.72800474","ECCENTRICITY":"0.00295690","INCLINATION":"82.9350","RA_OF_ASC_NODE":"327.4895","ARG_OF_PERICENTER":"242.1942","MEAN_ANOMALY":"129.8022","EPHEMERIS_TYPE":"0","CLASSIFICATION_TYPE":"U","NORAD_CAT_ID":"87934","ELEMENT_SET_NO":"999","REV_AT_EPOCH":"39857","BSTAR":"0.00007347500000","MEAN_MOTION_DOT":"0.00000083","MEAN_MOTION_DDOT":"0.0000000000000","SEMIMAJOR_AXIS":"7367.671","PERIOD":"104.895","APOAPSIS":"1011.322","PERIAPSIS":"967.751","OBJECT_TYPE":"TBA","RCS_SIZE":null,"COUNTRY_CODE":null,"LAUNCH_DATE":null,"SITE":null,"DECAY_DATE":null,"FILE":"3200777","GP_ID":"188874005","TLE_LINE0":"0 TBA - TO BE ASSIGNED","TLE_LINE1":"1 87934U          21308.34293661 +.00000083 +00000+0 +73475-4 0  9999","TLE_LINE2":"2 87934  82.9350 327.4895 0029569 242.1942 129.8022 13.72800474398575"},{"CCSDS_OMM_VERS":"2.0","COMMENT":"GENERATED VIA SPACE-TRACK.ORG API","CREATION_DATE":"2021-11-04T17:50:53","ORIGINATOR":"18 SPCS","OBJECT_NAME":"TBA - TO BE ASSIGNED","OBJECT_ID":"","CENTER_NAME":"EARTH","REF_FRAME":"TEME","TIME_SYSTEM":"UTC","MEAN_ELEMENT_THEORY":"SGP4","EPOCH":"2021-11-04T14:33:34.654176","MEAN_MOTION":"14.82263872","ECCENTRICITY":"0.01431960","INCLINATION":"99.0565","RA_OF_ASC_NODE":"245.1431","ARG_OF_PERICENTER":"223.7646","MEAN_ANOMALY":"312.3128","EPHEMERIS_TYPE":"0","CLASSIFICATION_TYPE":"U","NORAD_CAT_ID":"87942","ELEMENT_SET_NO":"999","REV_AT_EPOCH":"42289","BSTAR":"0.00186950000000","MEAN_MOTION_DOT":"0.00017819","MEAN_MOTION_DDOT":"0.0000000000000","SEMIMAJOR_AXIS":"7000.324","PERIOD":"97.149","APOAPSIS":"722.431","PERIAPSIS":"521.947","OBJECT_TYPE":"TBA","RCS_SIZE":null,"COUNTRY_CODE":null,"LAUNCH_DATE":null,"SITE":null,"DECAY_DATE":null,"FILE":"3200777","GP_ID":"188873969","TLE_LINE0":"0 TBA - TO BE ASSIGNED","TLE_LINE1":"1 87942U          21308.60665109 +.00017819 +00000+0 +18695-2 0  9993","TLE_LINE2":"2 87942  99.0565 245.1431 0143196 223.7646 312.3128 14.82263872422898"},{"CCSDS_OMM_VERS":"2.0","COMMENT":"GENERATED VIA SPACE-TRACK.ORG API","CREATION_DATE":"2021-05-26T17:44:58","ORIGINATOR":"18 SPCS","OBJECT_NAME":"TBA - TO BE ASSIGNED","OBJECT_ID":"","CENTER_NAME":"EARTH","REF_FRAME":"TEME","TIME_SYSTEM":"UTC","MEAN_ELEMENT_THEORY":"SGP4","EPOCH":"2021-05-26T05:52:13.310400","MEAN_MOTION":"12.54468292","ECCENTRICITY":"0.06086330","INCLINATION":"67.6328","RA_OF_ASC_NODE":"313.3002","ARG_OF_PERICENTER":"174.1690","MEAN_ANOMALY":"359.4235","EPHEMERIS_TYPE":"0","CLASSIFICATION_TYPE":"U","NORAD_CAT_ID":"87960","ELEMENT_SET_NO":"999","REV_AT_EPOCH":"87595","BSTAR":"0.00109290000000","MEAN_MOTION_DOT":"0.00000303","MEAN_MOTION_DDOT":"0.0000000000000","SEMIMAJOR_AXIS":"7823.998","PERIOD":"114.790","APOAPSIS":"1922.057","PERIAPSIS":"969.668","OBJECT_TYPE":"TBA","RCS_SIZE":null,"COUNTRY_CODE":null,"LAUNCH_DATE":null,"SITE":null,"DECAY_DATE":null,"FILE":"3042938","GP_ID":"177913548","TLE_LINE0":"0 TBA - TO BE ASSIGNED","TLE_LINE1":"1 87960U          21146.24459850 +.00000303 +00000+0 +10929-2 0  9999","TLE_LINE2":"2 87960  67.6328 313.3002 0608633 174.1690 359.4235 12.54468292875958"},{"CCSDS_OMM_VERS":"2.0","COMMENT":"GENERATED VIA SPACE-TRACK.ORG API","CREATION_DATE":"2021-10-29T18:22:04","ORIGINATOR":"18 SPCS","OBJECT_NAME":"TBA - TO BE ASSIGNED","OBJECT_ID":"","CENTER_NAME":"EARTH","REF_FRAME":"TEME","TIME_SYSTEM":"UTC","MEAN_ELEMENT_THEORY":"SGP4","EPOCH":"2021-10-12T13:30:18.264096","MEAN_MOTION":"15.46578069","ECCENTRICITY":"0.00118990","INCLINATION":"99.0098","RA_OF_ASC_NODE":"214.6827","ARG_OF_PERICENTER":"219.1613","MEAN_ANOMALY":"140.8771","EPHEMERIS_TYPE":"0","CLASSIFICATION_TYPE":"U","NORAD_CAT_ID":"87970","ELEMENT_SET_NO":"999","REV_AT_EPOCH":"37922","BSTAR":"0.00680890000000","MEAN_MOTION_DOT":"0.00354808","MEAN_MOTION_DDOT":"0.0000000000000","SEMIMAJOR_AXIS":"6804.882","PERIOD":"93.109","APOAPSIS":"434.844","PERIAPSIS":"418.650","OBJECT_TYPE":"TBA","RCS_SIZE":null,"COUNTRY_CODE":null,"LAUNCH_DATE":null,"SITE":null,"DECAY_DATE":null,"FILE":"3191411","GP_ID":"188414015","TLE_LINE0":"0 TBA - TO BE ASSIGNED","TLE_LINE1":"1 87970U          21285.56271139 +.00354808 +00000+0 +68089-2 0  9993","TLE_LINE2":"2 87970  99.0098 214.6827 0011899 219.1613 140.8771 15.46578069379221"}]